ONEWEB-0588             
1 55153U 23004P   25152.96609665  .00000086  00000+0  18536-3 0  9999
2 55153  87.9145  51.0669 0002352  75.8790 284.2603 13.18686696119583
ONEWEB-0598             
1 55154U 23004Q   25152.89714503  .00000287  00000+0  77247-3 0  9997
2 55154  87.8834  96.8857 0002446  94.1513 265.9895 13.11420279116059
ONEWEB-0599             
1 55155U 23004R   25152.81250130  .00000075  00000+0  16098-3 0  9993
2 55155  87.9074  81.6027 0002000  85.1792 274.9568 13.17650306117390
ONEWEB-0614             
1 55156U 23004S   25152.89206410  .00000090  00000+0  21882-3 0  9998
2 55156  87.8836  96.8955 0002183  71.6003 288.5362 13.11420365115992
ONEWEB-0616             
1 55157U 23004T   25152.85468989  .00000002  00000+0 -28107-4 0  9998
2 55157  87.9068  81.5867 0001233 106.2608 253.8660 13.17648492117611
ONEWEB-0617             
1 55158U 23004U   25152.88018099 -.00000365  00000+0 -10667-2 0  9998
2 55158  87.8830  96.8791 0002354  76.0145 284.1245 13.11416635116013
ONEWEB-0618             
1 55159U 23004V   25152.91668981  .00052063  00000+0  13077-1 0  9991
2 55159  86.9076 328.5364 0012247 220.9125  18.4908 14.50935514  5564
ONEWEB-0619             
1 55160U 23004W   25152.81082329  .00000046  00000+0  86546-4 0  9996
2 55160  87.9070  81.5731 0001768  65.2103 294.9212 13.17649660117500
